NORAD_CAT_ID,OBJECT_NAME,OBJECT_TYPE,EPOCH,MEAN_MOTION,ECCENTRICITY,INCLINATION,RA_OF_ASC_NODE,ARG_OF_PERICENTER,MEAN_ANOMALY,BSTAR,MEAN_MOTION_DOT,MEAN_MOTION_DDOT,TLE_LINE0,TLE_LINE1,TLE_LINE2,SEMIMAJOR_AXIS,PERIOD,APOGEE,PERIGEE,DECAYED
52125.0,STARLINK-3727,PAYLOAD,2022-03-31 22:00:00,15.73244576,0.000119,53.2166,81.0957,72.1199,316.3075,0.00022648,0.00031344,0.0,0 STARLINK-3727,1 52125U 22029AP  22090.91667824  .00031344  00000-0  22648-3 0  9996,2 52125  53.2166  81.0957 0001190  72.1199 316.3075 15.73244576  2797,6727.768,91.531,350.434,348.832,0.0
52125.0,STARLINK-3727,PAYLOAD,2022-04-01 04:00:01,15.73306886,0.0001272,53.2168,79.8598,68.4151,296.8384,-0.00076722,-0.00107419,0.0,0 STARLINK-3727,1 52125U 22029AP  22091.16668981 -.00107419  00000-0 -76722-3 0  9990,2 52125  53.2168  79.8598 0001272  68.4151 296.8384 15.73306886  3296,6727.59,91.527,350.311,348.6,0.0
52125.0,STARLINK-3727,PAYLOAD,2022-04-01 14:00:01,15.73262698,0.0001254,53.2164,77.7978,66.1163,140.3058,-0.00074486,-0.00104149,0.0,0 STARLINK-3727,1 52125U 22029AP  22091.58334491 -.00104149  00000-0 -74486-3 0  9994,2 52125  53.2164  77.7978 0001254  66.1163 140.3058 15.73262698  2897,6727.715999999999,91.53,350.425,348.73800000000006,0.0
52125.0,STARLINK-3727,PAYLOAD,2022-04-01 20:00:01,15.73201499,0.0001213,53.2164,76.5592,77.5135,105.6434,-0.00016793,-0.00024121,0.0,0 STARLINK-3727,1 52125U 22029AP  22091.83334491 -.00024121  00000-0 -16793-3 0  9990,2 52125  53.2164  76.5592 0001213  77.5135 105.6434 15.73201499  3408,6727.891,91.533,350.57199999999995,348.94,0.0
52125.0,STARLINK-3727,PAYLOAD,2022-04-01 22:00:00,15.73199143,0.0001232,53.2166,76.1468,80.5242,214.8647,-0.00021145,-0.00030187,0.0,0 STARLINK-3727,1 52125U 22029AP  22091.91667824 -.00030187  00000-0 -21145-3 0  9994,2 52125  53.2166  76.1468 0001232  80.5242 214.8647 15.73199143  2952,6727.898,91.533,350.591,348.934,0.0
52125.0,STARLINK-3727,PAYLOAD,2022-04-02 12:00:00,15.73153775,0.0001126,53.2165,73.2623,66.7593,294.2296,0.0006464,0.00090904,0.0,0 STARLINK-3727,1 52125U 22029AP  22092.50001157  .00090904  00000-0  64640-3 0  9999,2 52125  53.2165  73.2623 0001126  66.7593 294.2296 15.73153775  3504,6728.026999999999,91.536,350.65,349.134,0.0
52125.0,STARLINK-3727,PAYLOAD,2022-04-02 20:00:01,15.73214741,0.0001011,53.2171,71.6108,80.1334,9.7643,-0.00027362,-0.00038866,0.0,0 STARLINK-3727,1 52125U 22029AP  22092.83334491 -.00038866  00000-0 -27362-3 0  9996,2 52125  53.2171  71.6108 0001011  80.1334   9.7643 15.73214741  3569,6727.853,91.532,350.398,349.038,0.0
52125.0,STARLINK-3727,PAYLOAD,2022-04-02 22:00:01,15.73219913,0.0001052,53.2173,71.1983,83.9027,118.2926,-0.00045558,-0.00064124,0.0,0 STARLINK-3727,1 52125U 22029AP  22092.91668981 -.00064124  00000-0 -45558-3 0  9992,2 52125  53.2173  71.1983 0001052  83.9027 118.2926 15.73219913  3108,6727.8380000000025,91.532,350.411,348.996,0.0
52125.0,STARLINK-3727,PAYLOAD,2022-04-03 04:00:00,15.73169701,0.00011,53.2174,69.9629,71.8044,107.0187,-0.000641,-0.0008951,0.0,0 STARLINK-3727,1 52125U 22029AP  22093.16667824 -.00089510  00000-0 -64100-3 0  9995,2 52125  53.2174  69.9629 0001100  71.8044 107.0187 15.73169701  3610,6727.982,91.535,350.587,349.106,0.0
52125.0,STARLINK-3727,PAYLOAD,2022-04-03 12:00:00,15.73117246,9.33e-05,53.2171,68.3138,66.9686,200.6999,0.00029812,0.00041277,0.0,0 STARLINK-3727,1 52125U 22029AP  22093.50001157  .00041277  00000-0  29812-3 0  9991,2 52125  53.2171  68.3138 0000933  66.9686 200.6999 15.73117246  3668,6728.130999999999,91.538,350.624,349.36800000000005,0.0
52125.0,STARLINK-3727,PAYLOAD,2022-04-03 22:00:00,15.73068476,9.04e-05,53.2175,66.2507,87.0269,21.7058,0.0014585,0.00208046,0.0,0 STARLINK-3727,1 52125U 22029AP  22093.91667824  .00208046  00000-0  14585-2 0  9994,2 52125  53.2175  66.2507 0000904  87.0269  21.7058 15.73068476  3262,6728.27,91.541,350.74300000000005,349.527,0.0
52125.0,STARLINK-3727,PAYLOAD,2022-04-04 14:00:01,15.73221611,0.0001189,53.2175,62.953,82.0989,204.4104,0.00031987,0.00044551,0.0,0 STARLINK-3727,1 52125U 22029AP  22094.58334491  .00044551  00000-0  31987-3 0  9994,2 52125  53.2175  62.9530 0001189  82.0989 204.4104 15.73221611  3377,6727.834,91.532,350.49800000000016,348.899,0.0
52125.0,STARLINK-3727,PAYLOAD,2022-04-04 20:00:01,15.73238844,0.0001156,53.2176,61.7147,91.2219,172.0214,0.00076824,0.00108784,0.0,0 STARLINK-3727,1 52125U 22029AP  22094.83334491  .00108784  00000-0  76824-3 0  9990,2 52125  53.2176  61.7147 0001156  91.2219 172.0214 15.73238844  3874,6727.784000000002,91.531,350.427,348.872,0.0
52125.0,STARLINK-3727,PAYLOAD,2022-04-04 22:00:00,15.73289382,0.00012,53.218,61.3025,90.7307,284.7503,0.00020268,0.00028028,0.0,0 STARLINK-3727,1 52125U 22029AP  22094.91667824  .00028028  00000-0  20268-3 0  9991,2 52125  53.2180  61.3025 0001200  90.7307 284.7503 15.73289382  3428,6727.64,91.528,350.31300000000016,348.6980000000001,0.0
52125.0,STARLINK-3727,PAYLOAD,2022-04-05 04:00:00,15.73326502,0.0001162,53.218,60.0671,80.5193,271.747,-0.00068812,-0.0009661,0.0,0 STARLINK-3727,1 52125U 22029AP  22095.16667824 -.00096610  00000-0 -68812-3 0  9990,2 52125  53.2180  60.0671 0001162  80.5193 271.7470 15.73326502  3928,6727.535,91.526,350.181,348.61800000000005,0.0
52125.0,STARLINK-3727,PAYLOAD,2022-04-05 14:00:01,15.73281264,9.35e-05,53.2178,58.0042,84.0608,109.5431,-0.0012017,-0.00166544,0.0,0 STARLINK-3727,1 52125U 22029AP  22095.58335648 -.00166544  00000-0 -12017-2 0  9991,2 52125  53.2178  58.0042 0000935  84.0608 109.5431 15.73281264  3538,6727.663000000001,91.528,350.158,348.899,0.0
52125.0,STARLINK-3727,PAYLOAD,2022-04-05 22:00:00,15.73144358,7.2e-05,53.218,56.3543,98.0623,184.424,0.0004855,0.00067906,0.0,0 STARLINK-3727,1 52125U 22029AP  22095.91667824  .00067906  00000-0  48550-3 0  9994,2 52125  53.2180  56.3543 0000720  98.0623 184.4240 15.73144358  3589,6728.054,91.536,350.403,349.434,0.0
52125.0,STARLINK-3727,PAYLOAD,2022-04-06 04:00:00,15.73192864,8.109999999999999e-05,53.2176,55.1191,81.6342,177.5134,-0.00032393,-0.00045817,0.0,0 STARLINK-3727,1 52125U 22029AP  22096.16667824 -.00045817  00000-0 -32393-3 0  9999,2 52125  53.2176  55.1191 0000811  81.6342 177.5134 15.73192864  4083,6727.916,91.534,350.326,349.235,0.0
52125.0,STARLINK-3727,PAYLOAD,2022-04-06 12:00:00,15.73185351,8.73e-05,53.2175,53.4692,83.8418,264.1995,0.00017918,0.00024585,0.0,0 STARLINK-3727,1 52125U 22029AP  22096.50001157  .00024585  00000-0  17918-3 0  9991,2 52125  53.2175  53.4692 0000873  83.8418 264.1995 15.73185351  4132,6727.937,91.534,350.389,349.215,0.0
52125.0,STARLINK-3727,PAYLOAD,2022-04-06 14:00:01,15.73207403,9.06e-05,53.2177,53.0563,91.0043,9.26,-8.942299999999999e-05,-0.00013153,0.0,0 STARLINK-3727,1 52125U 22029AP  22096.58334491 -.00013153  00000-0 -89423-4 0  9991,2 52125  53.2177  53.0563 0000906  91.0043   9.2600 15.73207403  3693,6727.874,91.533,350.349,349.13,0.0
52125.0,STARLINK-3727,PAYLOAD,2022-04-06 22:00:00,15.73182626,0.0001079,53.2181,51.4062,98.7765,90.422,0.00043418,0.0006071,0.0,0 STARLINK-3727,1 52125U 22029AP  22096.91667824  .00060710  00000-0  43418-3 0  9999,2 52125  53.2181  51.4062 0001079  98.7765  90.4220 15.73182626  3713,6727.945,91.534,350.536,349.084,0.0
52125.0,STARLINK-3727,PAYLOAD,2022-04-07 14:00:01,15.73218096,9.49e-05,53.2179,48.1079,95.8294,271.2353,-0.00032588,-0.00046138,0.0,0 STARLINK-3727,1 52125U 22029AP  22097.58334491 -.00046138  00000-0 -32588-3 0  9990,2 52125  53.2179  48.1079 0000949  95.8294 271.2353 15.73218096  3729,6727.844,91.532,350.347,349.07,0.0
52125.0,STARLINK-3727,PAYLOAD,2022-04-07 20:00:01,15.73175345,0.0001056,53.2179,46.8701,101.8141,241.9594,0.00074552,0.00105216,0.0,0 STARLINK-3727,1 52125U 22029AP  22097.83334491  .00105216  00000-0  74552-3 0  9996,2 52125  53.2179  46.8701 0001056 101.8141 241.9594 15.73175345  4344,6727.965,91.535,350.541,349.12,0.0
52125.0,STARLINK-3727,PAYLOAD,2022-04-07 22:00:00,15.732240300000004,0.0001062,53.2179,46.4583,101.456,354.5369,0.00017594,0.00024168,0.0,0 STARLINK-3727,1 52125U 22029AP  22097.91667824  .00024168  00000-0  17594-3 0  9993,2 52125  53.2179  46.4583 0001062 101.4560 354.5369 15.73224030  3702,6727.8269999999975,91.532,350.406,348.977,0.0
52125.0,STARLINK-3727,PAYLOAD,2022-04-08 04:00:00,15.73233407,9.22e-05,53.2176,45.223,91.0716,341.6477,-0.00014059,-0.0002033,0.0,0 STARLINK-3727,1 52125U 22029AP  22098.16667824 -.00020330  00000-0 -14059-3 0  9993,2 52125  53.2176  45.2230 0000922  91.0716 341.6477 15.73233407  4409,6727.8,91.531,350.285,349.045,0.0
52125.0,STARLINK-3727,PAYLOAD,2022-04-08 12:00:00,15.73295804,9.36e-05,53.2173,43.5724,96.3158,65.3649,-0.00065793,-0.00092322,0.0,0 STARLINK-3727,1 52125U 22029AP  22098.50001157 -.00092322  00000-0 -65793-3 0  9993,2 52125  53.2173  43.5724 0000936  96.3158  65.3649 15.73295804  4453,6727.621999999999,91.528,350.117,348.857,0.0
52125.0,STARLINK-3727,PAYLOAD,2022-04-08 14:00:03,15.73283875,9.88e-05,53.2175,43.1594,101.4112,172.6569,-0.00064824,-0.0009094,0.0,0 STARLINK-3727,1 52125U 22029AP  22098.58336806 -.00090940  00000-0 -64824-3 0  9991,2 52125  53.2175  43.1594 0000988 101.4112 172.6569 15.73283875  3717,6727.656,91.528,350.186,348.856,0.0
52125.0,STARLINK-3727,PAYLOAD,2022-04-08 22:00:00,15.73220596,0.0001205,53.2179,41.5097,102.4251,260.471,-0.00019078,-0.00027331,0.0,0 STARLINK-3727,1 52125U 22029AP  22098.91667824 -.00027331  00000-0 -19078-3 0  9990,2 52125  53.2179  41.5097 0001205 102.4251 260.4710 15.73220596  3703,6727.8359999999975,91.532,350.51199999999994,348.891,0.0
52125.0,STARLINK-3727,PAYLOAD,2022-04-09 12:00:00,15.73148859,0.0001306,53.2175,38.6238,95.9101,332.5801,-0.00054737,-0.00076576,0.0,0 STARLINK-3727,1 52125U 22029AP  22099.50001157 -.00076576  00000-0 -54737-3 0  9993,2 52125  53.2175  38.6238 0001306  95.9101 332.5801 15.73148859  4619,6728.041,91.536,350.785,349.027,0.0
